[
    {
        "Altitude(m)": 705236.1453554746,
        "Argument of Periapsis(deg)": 0.005695060593313534,
        "Eccentricity": 0.0,
        "Inclination(deg)": 45.0,
        "Latitude(deg)": 35.45515433374856,
        "Longitude(deg)": -130.27573330646325,
        "Mean Anomaly(deg)": 54.85750832374039,
        "RAAN(deg)": 284.9946240292709,
        "Satellite Name": "Constellation 1 1257",
        "Satellite Number": 1257,
        "Semi-Major Axis(m)": 7083131.272910544,
        "Time(s)": 95
    },
    {
        "Altitude(m)": 705242.0661083288,
        "Argument of Periapsis(deg)": 0.00575500859955894,
        "Eccentricity": 0.0,
        "Inclination(deg)": 45.0,
        "Latitude(deg)": 35.48555312072749,
        "Longitude(deg)": -130.21535580543772,
        "Mean Anomaly(deg)": 54.91820946399032,
        "RAAN(deg)": 284.99456744010536,
        "Satellite Name": "Constellation 1 1257",
        "Satellite Number": 1257,
        "Semi-Major Axis(m)": 7083131.272910544,
        "Time(s)": 96
    },
    {
        "Altitude(m)": 705247.9847232874,
        "Argument of Periapsis(deg)": 0.005814956605804345,
        "Eccentricity": 0.0,
        "Inclination(deg)": 45.0,
        "Latitude(deg)": 35.51591727817119,
        "Longitude(deg)": -130.15492961388475,
        "Mean Anomaly(deg)": 54.978910604240205,
        "RAAN(deg)": 284.9945108509397,
        "Satellite Name": "Constellation 1 1257",
        "Satellite Number": 1257,
        "Semi-Major Axis(m)": 7083131.272910544,
        "Time(s)": 97
    },
    {
        "Altitude(m)": 705253.9011628764,
        "Argument of Periapsis(deg)": 0.00587490461204975,
        "Eccentricity": 0.0,
        "Inclination(deg)": 45.0,
        "Latitude(deg)": 35.54624674198621,
        "Longitude(deg)": -130.09445486424417,
        "Mean Anomaly(deg)": 55.039611744490095,
        "RAAN(deg)": 284.9944542617742,
        "Satellite Name": "Constellation 1 1257",
        "Satellite Number": 1257,
        "Semi-Major Axis(m)": 7083131.272910544,
        "Time(s)": 98
    },
    {
        "Altitude(m)": 705259.8153896412,
        "Argument of Periapsis(deg)": 0.005934852618295156,
        "Eccentricity": 0.0,
        "Inclination(deg)": 45.0,
        "Latitude(deg)": 35.57654144801834,
        "Longitude(deg)": -130.0339315210815,
        "Mean Anomaly(deg)": 55.10031288473998,
        "RAAN(deg)": 284.9943976726086,
        "Satellite Name": "Constellation 1 1257",
        "Satellite Number": 1257,
        "Semi-Major Axis(m)": 7083131.272910544,
        "Time(s)": 99
    },
    {
        "Altitude(m)": 705265.7273661552,
        "Argument of Periapsis(deg)": 0.005994800624540561,
        "Eccentricity": 0.0,
        "Inclination(deg)": 45.0,
        "Latitude(deg)": 35.60680133205298,
        "Longitude(deg)": -129.97335954918645,
        "Mean Anomaly(deg)": 55.16101402498992,
        "RAAN(deg)": 284.99434108344303,
        "Satellite Name": "Constellation 1 1257",
        "Satellite Number": 1257,
        "Semi-Major Axis(m)": 7083131.272910544,
        "Time(s)": 100
    },
    {
        "Altitude(m)": 705271.6370550222,
        "Argument of Periapsis(deg)": 0.006054748630785968,
        "Eccentricity": 0.0,
        "Inclination(deg)": 45.0,
        "Latitude(deg)": 35.63702632981539,
        "Longitude(deg)": -129.91273891357378,
        "Mean Anomaly(deg)": 55.2217151652398,
        "RAAN(deg)": 284.99428449427745,
        "Satellite Name": "Constellation 1 1257",
        "Satellite Number": 1257,
        "Semi-Major Axis(m)": 7083131.272910544,
        "Time(s)": 101
    },
    {
        "Altitude(m)": 705277.5444188655,
        "Argument of Periapsis(deg)": 0.006114696637031373,
        "Eccentricity": 0.0,
        "Inclination(deg)": 45.0,
        "Latitude(deg)": 35.6672163769709,
        "Longitude(deg)": -129.85206957948498,
        "Mean Anomaly(deg)": 55.2824163054897,
        "RAAN(deg)": 284.99422790511187,
        "Satellite Name": "Constellation 1 1257",
        "Satellite Number": 1257,
        "Semi-Major Axis(m)": 7083131.272910544,
        "Time(s)": 102
    },
    {
        "Altitude(m)": 705283.4494203491,
        "Argument of Periapsis(deg)": 0.006174644643276778,
        "Eccentricity": 0.0,
        "Inclination(deg)": 45.0,
        "Latitude(deg)": 35.69737140912512,
        "Longitude(deg)": -129.7913515123894,
        "Mean Anomaly(deg)": 55.34311744573963,
        "RAAN(deg)": 284.99417131594635,
        "Satellite Name": "Constellation 1 1257",
        "Satellite Number": 1257,
        "Semi-Major Axis(m)": 7083131.272910544,
        "Time(s)": 103
    },
    {
        "Altitude(m)": 705289.3520221541,
        "Argument of Periapsis(deg)": 0.006234592649522184,
        "Eccentricity": 0.0,
        "Inclination(deg)": 45.0,
        "Latitude(deg)": 35.72749136182439,
        "Longitude(deg)": -129.73058484608248,
        "Mean Anomaly(deg)": 55.40381858598951,
        "RAAN(deg)": 284.99411472678077,
        "Satellite Name": "Constellation 1 1257",
        "Satellite Number": 1257,
        "Semi-Major Axis(m)": 7083131.272910544,
        "Time(s)": 104
    },
    {
        "Altitude(m)": 705295.2521869894,
        "Argument of Periapsis(deg)": 0.00629454065576759,
        "Eccentricity": 0.0,
        "Inclination(deg)": 45.0,
        "Latitude(deg)": 35.75757617055519,
        "Longitude(deg)": -129.66976921029934,
        "Mean Anomaly(deg)": 55.4645197262394,
        "RAAN(deg)": 284.9940581376152,
        "Satellite Name": "Constellation 1 1257",
        "Satellite Number": 1257,
        "Semi-Major Axis(m)": 7083131.272910544,
        "Time(s)": 105
    },
    {
        "Altitude(m)": 705301.149877599,
        "Argument of Periapsis(deg)": 0.006354488662012995,
        "Eccentricity": 0.0,
        "Inclination(deg)": 45.0,
        "Latitude(deg)": 35.787625770745514,
        "Longitude(deg)": -129.60890473929754,
        "Mean Anomaly(deg)": 55.525220866489285,
        "RAAN(deg)": 284.9940015484496,
        "Satellite Name": "Constellation 1 1257",
        "Satellite Number": 1257,
        "Semi-Major Axis(m)": 7083131.272910544,
        "Time(s)": 106
    },
    {
        "Altitude(m)": 705307.0450567498,
        "Argument of Periapsis(deg)": 0.006414436668258401,
        "Eccentricity": 0.0,
        "Inclination(deg)": 45.0,
        "Latitude(deg)": 35.81764009776439,
        "Longitude(deg)": -129.5479913994709,
        "Mean Anomaly(deg)": 55.585922006739224,
        "RAAN(deg)": 284.993944959284,
        "Satellite Name": "Constellation 1 1257",
        "Satellite Number": 1257,
        "Semi-Major Axis(m)": 7083131.272910544,
        "Time(s)": 107
    },
    {
        "Altitude(m)": 705312.9376872358,
        "Argument of Periapsis(deg)": 0.0064743846745038075,
        "Eccentricity": 0.0,
        "Inclination(deg)": 45.0,
        "Latitude(deg)": 35.84761908692227,
        "Longitude(deg)": -129.48702915744755,
        "Mean Anomaly(deg)": 55.64662314698911,
        "RAAN(deg)": 284.9938883701185,
        "Satellite Name": "Constellation 1 1257",
        "Satellite Number": 1257,
        "Semi-Major Axis(m)": 7083131.272910544,
        "Time(s)": 108
    },
    {
        "Altitude(m)": 705318.827731883,
        "Argument of Periapsis(deg)": 0.0065343326807492125,
        "Eccentricity": 0.0,
        "Inclination(deg)": 45.0,
        "Latitude(deg)": 35.87756267347125,
        "Longitude(deg)": -129.42601798009136,
        "Mean Anomaly(deg)": 55.707324287239004,
        "RAAN(deg)": 284.9938317809529,
        "Satellite Name": "Constellation 1 1257",
        "Satellite Number": 1257,
        "Semi-Major Axis(m)": 7083131.272910544,
        "Time(s)": 109
    },
    {
        "Altitude(m)": 705324.7151535488,
        "Argument of Periapsis(deg)": 0.0065942806869946176,
        "Eccentricity": 0.0,
        "Inclination(deg)": 45.0,
        "Latitude(deg)": 35.907470792605274,
        "Longitude(deg)": -129.36495783450314,
        "Mean Anomaly(deg)": 55.768025427488936,
        "RAAN(deg)": 284.9937751917873,
        "Satellite Name": "Constellation 1 1257",
        "Satellite Number": 1257,
        "Semi-Major Axis(m)": 7083131.272910544,
        "Time(s)": 110
    },
    {
        "Altitude(m)": 705330.5999151093,
        "Argument of Periapsis(deg)": 0.006654228693240024,
        "Eccentricity": 0.0,
        "Inclination(deg)": 45.0,
        "Latitude(deg)": 35.93734337946061,
        "Longitude(deg)": -129.30384885611903,
        "Mean Anomaly(deg)": 55.82872656773882,
        "RAAN(deg)": 284.99371860262175,
        "Satellite Name": "Constellation 1 1257",
        "Satellite Number": 1257,
        "Semi-Major Axis(m)": 7083131.272910544,
        "Time(s)": 111
    },
    {
        "Altitude(m)": 705336.4819794814,
        "Argument of Periapsis(deg)": 0.006714176699485429,
        "Eccentricity": 0.0,
        "Inclination(deg)": 45.0,
        "Latitude(deg)": 35.96718036911534,
        "Longitude(deg)": -129.24269067632378,
        "Mean Anomaly(deg)": 55.88942770798871,
        "RAAN(deg)": 284.9936620134562,
        "Satellite Name": "Constellation 1 1257",
        "Satellite Number": 1257,
        "Semi-Major Axis(m)": 7083131.272910544,
        "Time(s)": 112
    },
    {
        "Altitude(m)": 705342.3613095997,
        "Argument of Periapsis(deg)": 0.006774124705730835,
        "Eccentricity": 0.0,
        "Inclination(deg)": 45.0,
        "Latitude(deg)": 35.99698169659071,
        "Longitude(deg)": -129.18148343103405,
        "Mean Anomaly(deg)": 55.95012884823859,
        "RAAN(deg)": 284.99360542429065,
        "Satellite Name": "Constellation 1 1257",
        "Satellite Number": 1257,
        "Semi-Major Axis(m)": 7083131.272910544,
        "Time(s)": 113
    }
]